NORAD_CAT_ID,OBJECT_NAME,OBJECT_TYPE,EPOCH,MEAN_MOTION,ECCENTRICITY,INCLINATION,RA_OF_ASC_NODE,ARG_OF_PERICENTER,MEAN_ANOMALY,BSTAR,MEAN_MOTION_DOT,MEAN_MOTION_DDOT,TLE_LINE0,TLE_LINE1,TLE_LINE2,SEMIMAJOR_AXIS,PERIOD,APOGEE,PERIGEE,DECAYED
55667.0,STARLINK-5456,PAYLOAD,2024-03-10 12:29:38,14.98326688,0.000268,69.9998,202.8846,278.5129,81.5726,8.0422e-05,8.67e-06,0.0,0 STARLINK-5456,1 55667U 23021AR  24070.52058761  .00000867  00000-0  80422-4 0  9995,2 55667  69.9998 202.8846 0002680 278.5129  81.5726 14.98326688 59762,6950.203,96.107,573.931,570.205,0.0
55667.0,STARLINK-5456,PAYLOAD,2024-03-10 18:54:11,14.98326291,0.0002705,69.9996,202.2105,276.3225,83.7625,6.9486e-05,7.36e-06,0.0,0 STARLINK-5456,1 55667U 23021AR  24070.78762817  .00000736  00000-0  69486-4 0  9999,2 55667  69.9996 202.2105 0002705 276.3225  83.7625 14.98326291 60105,6950.204,96.107,573.949,570.189,0.0
55667.0,STARLINK-5456,PAYLOAD,2024-03-11 12:31:39,14.98338579,0.0002856,69.9997,200.36,277.6367,82.4467,-4.4968e-05,-6.3e-06,0.0,0 STARLINK-5456,1 55667U 23021AR  24071.52198136 -.00000630  00000-0 -44968-4 0  9992,2 55667  69.9997 200.3600 0002856 277.6367  82.4467 14.98338579 59912,6950.166,96.106,574.016,570.046,0.0
55667.0,STARLINK-5456,PAYLOAD,2024-03-12 12:33:40,14.98332246,0.0002871,69.9999,197.8358,275.9575,84.1257,1.7909e-05,1.21e-06,0.0,0 STARLINK-5456,1 55667U 23021AR  24072.52338001  .00000121  00000-0  17909-4 0  9998,2 55667  69.9999 197.8358 0002871 275.9575  84.1257 14.98332246 60062,6950.186,96.107,574.046,570.056,0.0
55667.0,STARLINK-5456,PAYLOAD,2024-03-12 14:09:48,14.98332241,0.0002809,70.0002,197.6681,273.6154,86.4684,2.1816e-05,1.67e-06,0.0,0 STARLINK-5456,1 55667U 23021AR  24072.59013968  .00000167  00000-0  21816-4 0  9999,2 55667  70.0002 197.6681 0002809 273.6154  86.4684 14.98332241 60374,6950.186,96.107,574.003,570.099,0.0
55667.0,STARLINK-5456,PAYLOAD,2024-03-13 01:22:44,14.98351874,0.0002904,70.0001,196.4891,270.7643,89.3183,-0.00035133,-4.285e-05,0.0,0 STARLINK-5456,1 55667U 23021AR  24073.05745463 -.00004285  00000-0 -35133-3 0  9996,2 55667  70.0001 196.4891 0002904 270.7643  89.3183 14.98351874 60144,6950.125,96.106,574.009,569.972,0.0
55667.0,STARLINK-5456,PAYLOAD,2024-03-13 12:35:40,14.9833134,0.0002896,70.0004,195.3116,270.0277,90.055,-2.4863e-05,-3.9e-06,0.0,0 STARLINK-5456,1 55667U 23021AR  24073.52477974 -.00000390  00000-0 -24863-4 0  9999,2 55667  70.0004 195.3116 0002896 270.0277  90.0550 14.98331340 60212,6950.189,96.107,574.067,570.041,0.0
55667.0,STARLINK-5456,PAYLOAD,2024-03-13 14:11:48,14.98333873,0.0002961,69.9999,195.1425,268.4494,91.6326,-4.2472e-06,-1.44e-06,0.0,0 STARLINK-5456,1 55667U 23021AR  24073.59153725 -.00000144  00000-0 -42472-5 0  9995,2 55667  69.9999 195.1425 0002961 268.4494  91.6326 14.98333873 60523,6950.181,96.107,574.104,569.988,0.0
55667.0,STARLINK-5456,PAYLOAD,2024-03-14 12:37:41,14.98331145,0.0002707,70.0008,192.7856,258.3294,101.7561,-1.1655e-05,-2.32e-06,0.0,0 STARLINK-5456,1 55667U 23021AR  24074.52617682 -.00000232  00000-0 -11655-4 0  9992,2 55667  70.0008 192.7856 0002707 258.3294 101.7561 14.98331145 60368,6950.189,96.107,573.936,570.173,0.0
55667.0,STARLINK-5456,PAYLOAD,2024-03-15 11:03:34,14.98328706,0.0002997,70.0,190.4296,270.1637,89.9179,1.1378e-05,4.3e-07,0.0,0 STARLINK-5456,1 55667U 23021AR  24075.46081779  .00000043  00000-0  11378-4 0  9998,2 55667  70.0000 190.4296 0002997 270.1637  89.9179 14.98328706 60807,6950.197,96.107,574.145,569.979,0.0
55667.0,STARLINK-5456,PAYLOAD,2024-03-16 04:41:03,14.98321427,0.0002977,70.0001,188.5784,267.6616,92.4202,0.00011884,1.325e-05,0.0,0 STARLINK-5456,1 55667U 23021AR  24076.19517766  .00001325  00000-0  11884-3 0  9994,2 55667  70.0001 188.5784 0002977 267.6616  92.4202 14.98321427 60612,6950.219,96.108,574.153,570.015,0.0
55667.0,STARLINK-5456,PAYLOAD,2024-03-16 14:17:51,14.98327253,0.0002957,70.0004,187.5692,269.2741,90.8079,-9.3863e-06,-2.05e-06,0.0,0 STARLINK-5456,1 55667U 23021AR  24076.59573956 -.00000205  00000-0 -93863-5 0  9998,2 55667  70.0004 187.5692 0002957 269.2741  90.8079 14.98327253 60973,6950.201,96.107,574.122,570.011,0.0
55667.0,STARLINK-5456,PAYLOAD,2024-03-16 17:30:07,14.98330428,0.0002848,70.0007,187.2329,266.2793,93.804,2.6988e-05,2.29e-06,0.0,0 STARLINK-5456,1 55667U 23021AR  24076.72925647  .00000229  00000-0  26988-4 0  9998,2 55667  70.0007 187.2329 0002848 266.2793  93.8040 14.98330428 60994,6950.192,96.107,574.036,570.077,0.0
55667.0,STARLINK-5456,PAYLOAD,2024-03-17 11:07:36,14.9832734,0.0002765,70.0009,185.3815,265.883,94.2013,7.9975e-06,2e-08,0.0,0 STARLINK-5456,1 55667U 23021AR  24077.46361944  .00000002  00000-0  79975-5 0  9998,2 55667  70.0009 185.3815 0002765 265.8830  94.2013 14.98327340 60804,6950.201,96.107,573.988,570.144,0.0
55667.0,STARLINK-5456,PAYLOAD,2024-03-17 14:19:52,14.98327567,0.0002761,70.0009,185.0449,266.0679,94.0164,1.0409e-05,3.1e-07,0.0,0 STARLINK-5456,1 55667U 23021AR  24077.59713939  .00000031  00000-0  10409-4 0  9995,2 55667  70.0009 185.0449 0002761 266.0679  94.0164 14.98327567 61126,6950.2,96.107,573.984,570.146,0.0
55667.0,STARLINK-5456,PAYLOAD,2024-03-17 17:32:08,14.98330032,0.0002744,70.0011,184.7086,266.3863,93.6982,3.662e-05,3.44e-06,0.0,0 STARLINK-5456,1 55667U 23021AR  24077.73065720  .00000344  00000-0  36620-4 0  9999,2 55667  70.0011 184.7086 0002744 266.3863  93.6982 14.98330032 61147,6950.193,96.107,573.965,570.151,0.0
55667.0,STARLINK-5456,PAYLOAD,2024-03-18 11:09:37,14.98330423,0.000272,70.0012,182.8573,264.55,95.5349,5.4128e-05,5.53e-06,0.0,0 STARLINK-5456,1 55667U 23021AR  24078.46501587  .00000553  00000-0  54128-4 0  9991,2 55667  70.0012 182.8573 0002720 264.5500  95.5349 14.98330423 60950,6950.192,96.107,573.947,570.166,0.0
55667.0,STARLINK-5456,PAYLOAD,2024-03-19 11:11:40,14.9830139,0.0003105,70.001,180.3329,272.6428,87.4376,-0.00031387,-3.833e-05,0.0,0 STARLINK-5456,1 55667U 23021AR  24079.46644006 -.00003833  00000-0 -31387-3 0  9993,2 55667  70.0010 180.3329 0003105 272.6428  87.4376 14.98301390 61409,6950.281,96.109,574.304,569.988,0.0
55667.0,STARLINK-5456,PAYLOAD,2024-03-19 12:47:48,14.9830527,0.0002857,70.0011,180.1648,259.2365,100.8473,-0.00025927,-3.183e-05,0.0,0 STARLINK-5456,1 55667U 23021AR  24079.53319890 -.00003183  00000-0 -25927-3 0  9992,2 55667  70.0011 180.1648 0002857 259.2365 100.8473 14.98305270 61113,6950.269,96.109,574.12,570.149,0.0
55667.0,STARLINK-5456,PAYLOAD,2024-03-20 09:37:33,14.98317031,0.0003086,70.0003,177.9744,273.2332,86.8474,-0.00013709,-1.728e-05,0.0,0 STARLINK-5456,1 55667U 23021AR  24080.40107758 -.00001728  00000-0 -13709-3 0  9996,2 55667  70.0003 177.9744 0003086 273.2332  86.8474 14.98317031 61246,6950.233,96.108,574.243,569.953,0.0
55667.0,STARLINK-5456,PAYLOAD,2024-03-20 12:49:49,14.98318496,0.0002995,70.001,177.6391,274.8944,85.1873,-0.00010085,-1.296e-05,0.0,0 STARLINK-5456,1 55667U 23021AR  24080.53459724 -.00001296  00000-0 -10085-3 0  9997,2 55667  70.0010 177.6391 0002995 274.8944  85.1873 14.98318496 61569,6950.228,96.108,574.175,570.012,0.0
55667.0,STARLINK-5456,PAYLOAD,2024-03-20 16:02:04,14.98323623,0.0002729,70.001,177.3017,267.8681,92.2165,-2.9493e-05,-4.45e-06,0.0,0 STARLINK-5456,1 55667U 23021AR  24080.66811261 -.00000445  00000-0 -29493-4 0  9998,2 55667  70.0010 177.3017 0002729 267.8681  92.2165 14.98323623 61286,6950.213,96.107,573.974,570.181,0.0
55667.0,STARLINK-5456,PAYLOAD,2024-03-21 00:02:44,14.98335093,0.0003726,70.0002,176.4601,274.809,85.2643,8.0507e-05,8.68e-06,0.0,0 STARLINK-5456,1 55667U 23021AR  24081.00190333  .00000868  00000-0  80507-4 0  9997,2 55667  70.0002 176.4601 0003726 274.8090  85.2643 14.98335093 61339,6950.177,96.107,574.632,569.453,0.0
55667.0,STARLINK-5456,PAYLOAD,2024-03-21 12:51:47,14.98353995,0.0003334,70.0004,175.1144,275.6096,84.4683,0.00017428,1.988e-05,0.0,0 STARLINK-5456,1 55667U 23021AR  24081.53596549  .00001988  00000-0  17428-3 0  9999,2 55667  70.0004 175.1144 0003334 275.6096  84.4683 14.98353995 61414,6950.119,96.105,574.301,569.667,0.0
55667.0,STARLINK-5456,PAYLOAD,2024-03-21 14:27:55,14.98352648,0.0003502,70.0,174.9456,277.4987,82.5774,0.00026031,3.016e-05,0.0,0 STARLINK-5456,1 55667U 23021AR  24081.60272308  .00003016  00000-0  26031-3 0  9995,2 55667  70.0000 174.9456 0003502 277.4987  82.5774 14.98352648 61727,6950.123,96.106,574.422,569.554,0.0
55667.0,STARLINK-5456,PAYLOAD,2024-03-21 16:04:02,14.98356243,0.0003467,70.0003,174.7761,277.0126,83.0638,0.00028844,3.353e-05,0.0,0 STARLINK-5456,1 55667U 23021AR  24081.66947869  .00003353  00000-0  28844-3 0  9990,2 55667  70.0003 174.7761 0003467 277.0126  83.0638 14.98356243 61739,6950.112,96.105,574.386,569.567,0.0
55667.0,STARLINK-5456,PAYLOAD,2024-03-22 04:53:08,14.9834069,0.0003251,70.0013,173.4325,278.0257,82.0533,0.00015705,1.782e-05,0.0,0 STARLINK-5456,1 55667U 23021AR  24082.20357184  .00001782  00000-0  15705-3 0  9992,2 55667  70.0013 173.4325 0003251 278.0257  82.0533 14.98340690 61517,6950.16,96.106,574.284,569.765,0.0
55667.0,STARLINK-5456,PAYLOAD,2024-03-22 14:29:56,14.98343651,0.0002824,70.0008,172.4198,272.0534,88.0302,0.00018399,2.104e-05,0.0,0 STARLINK-5456,1 55667U 23021AR  24082.60412545  .00002104  00000-0  18399-3 0  9990,2 55667  70.0008 172.4198 0002824 272.0534  88.0302 14.98343651 61874,6950.151,96.106,573.978,570.053,0.0
55667.0,STARLINK-5456,PAYLOAD,2024-03-22 16:06:04,14.9835003,0.0003378,70.0005,172.252,277.252,82.8255,0.00018089,2.067e-05,0.0,0 STARLINK-5456,1 55667U 23021AR  24082.67088037  .00002067  00000-0  18089-3 0  9996,2 55667  70.0005 172.2520 0003378 277.2520  82.8255 14.98350030 61581,6950.131,96.106,574.344,569.648,0.0
55667.0,STARLINK-5456,PAYLOAD,2024-03-23 04:55:12,14.9831018,0.0003132,70.0003,170.9063,271.1445,88.9355,-0.00053179,-6.429e-05,0.0,0 STARLINK-5456,1 55667U 23021AR  24083.20500743 -.00006429  00000-0 -53179-3 0  9996,2 55667  70.0003 170.9063 0003132 271.1445  88.9355 14.98310180 61662,6950.254,96.108,574.296,569.942,0.0
